start=new Date('2022-04-10T00:00:00.000Z').valueOf();
sats=[{"PERIOD":"95.594","COUNTRY_CODE":"US","PERIAPSIS":"546.292","TLE_LINE2":"2 47635  53.0599 275.0293 0001493  68.4061 279.3068 15.06363183  3619","CENTER_NAME":"EARTH","LAUNCH_DATE":"2021-02-16","OBJECT_NAME":"STARLINK-2012","SITE":"AFETR","MEAN_ELEMENT_THEORY":"SGP4","BSTAR":"0.00343290000000","TIME_SYSTEM":"UTC","RCS_SIZE":"LARGE","NORAD_CAT_ID":"47635","EPHEMERIS_TYPE":"0","ARG_OF_PERICENTER":"68.4061","OBJECT_TYPE":"PAYLOAD","MEAN_MOTION_DOT":"0.00051173","EPOCH":"2022-04-09T22:00:00.999936","REV_AT_EPOCH":"361","APOAPSIS":"548.360","DECAY_DATE":null,"ECCENTRICITY":"0.00014930","GP_ID":"200862622","TLE_LINE1":"1 47635U 21012R   22099.91667824  .00051173  00000-0  34329-2 0  9996","INCLINATION":"53.0599","REF_FRAME":"TEME","ELEMENT_SET_NO":"999","FILE":"3395351","MEAN_MOTION":"15.06363183","MEAN_ANOMALY":"279.3068","RA_OF_ASC_NODE":"275.0293","OBJECT_ID":"2021-012R","SEMIMAJOR_AXIS":"6925.461","MEAN_MOTION_DDOT":"0.0000000000000","CLASSIFICATION_TYPE":"U"},{"RCS_SIZE":"LARGE","TIME_SYSTEM":"UTC","EPHEMERIS_TYPE":"0","NORAD_CAT_ID":"47636","SITE":"AFETR","BSTAR":"-0.00012700000000","MEAN_ELEMENT_THEORY":"SGP4","MEAN_MOTION_DOT":"-0.00002172","OBJECT_TYPE":"PAYLOAD","ARG_OF_PERICENTER":"87.5807","COUNTRY_CODE":"US","PERIOD":"95.593","OBJECT_NAME":"STARLINK-2013","CENTER_NAME":"EARTH","TLE_LINE2":"2 47636  53.0558 349.9882 0001505  87.5807 272.5355 15.06392063 64760","PERIAPSIS":"546.196","LAUNCH_DATE":"2021-02-16","MEAN_MOTION":"15.06392063","FILE":"3395351","ELEMENT_SET_NO":"999","MEAN_ANOMALY":"272.5355","OBJECT_ID":"2021-012S","RA_OF_ASC_NODE":"349.9882","CLASSIFICATION_TYPE":"U","MEAN_MOTION_DDOT":"0.0000000000000","SEMIMAJOR_AXIS":"6925.373","APOAPSIS":"548.280","EPOCH":"2022-04-09T22:43:46.708032","REV_AT_EPOCH":"6476","TLE_LINE1":"1 47636U 21012S   22099.94706838 -.00002172  00000-0 -12700-3 0  9996","REF_FRAME":"TEME","INCLINATION":"53.0558","DECAY_DATE":null,"ECCENTRICITY":"0.00015050","GP_ID":"200863364"},{"RA_OF_ASC_NODE":"350.1183","OBJECT_ID":"2021-012T","ELEMENT_SET_NO":"999","FILE":"3395351","MEAN_MOTION":"15.06381308","MEAN_ANOMALY":"309.6578","SEMIMAJOR_AXIS":"6925.406","CLASSIFICATION_TYPE":"U","MEAN_MOTION_DDOT":"0.0000000000000","REV_AT_EPOCH":"6477","EPOCH":"2022-04-09T22:01:19.190208","APOAPSIS":"548.452","GP_ID":"200863594","ECCENTRICITY":"0.00017050","DECAY_DATE":null,"TLE_LINE1":"1 47637U 21012T   22099.91758322 -.00004860  00000-0 -30775-3 0  9997","INCLINATION":"53.0565","REF_FRAME":"TEME","BSTAR":"-0.00030775000000","MEAN_ELEMENT_THEORY":"SGP4","SITE":"AFETR","EPHEMERIS_TYPE":"0","NORAD_CAT_ID":"47637","TIME_SYSTEM":"UTC","RCS_SIZE":"LARGE","ARG_OF_PERICENTER":"50.4562","MEAN_MOTION_DOT":"-0.00004860","OBJECT_TYPE":"PAYLOAD","PERIOD":"95.593","COUNTRY_CODE":"US","LAUNCH_DATE":"2021-02-16","CENTER_NAME":"EARTH","TLE_LINE2":"2 47637  53.0565 350.1183 0001705  50.4562 309.6578 15.06381308 64776","PERIAPSIS":"546.090","OBJECT_NAME":"STARLINK-2014"},{"TLE_LINE1":"1 47638U 21012U   22099.78258732 -.00001507  00000-0 -82306-4 0  9996","INCLINATION":"53.0505","REF_FRAME":"TEME","DECAY_DATE":null,"ECCENTRICITY":"0.00013830","GP_ID":"200862369","APOAPSIS":"548.202","EPOCH":"2022-04-09T18:46:55.544448","REV_AT_EPOCH":"6577","MEAN_MOTION_DDOT":"0.0000000000000","CLASSIFICATION_TYPE":"U","SEMIMAJOR_AXIS":"6925.379","MEAN_MOTION":"15.06389965","FILE":"3395351","ELEMENT_SET_NO":"999","MEAN_ANOMALY":"277.9190","RA_OF_ASC_NODE":"275.7408","OBJECT_ID":"2021-012U","OBJECT_NAME":"STARLINK-2015","PERIAPSIS":"546.287","TLE_LINE2":"2 47638  53.0505 275.7408 0001383  82.1956 277.9190 15.06389965 65779","CENTER_NAME":"EARTH","LAUNCH_DATE":"2021-02-16","COUNTRY_CODE":"US","PERIOD":"95.593","OBJECT_TYPE":"PAYLOAD","MEAN_MOTION_DOT":"-0.00001507","ARG_OF_PERICENTER":"82.1956","TIME_SYSTEM":"UTC","RCS_SIZE":"LARGE","EPHEMERIS_TYPE":"0","NORAD_CAT_ID":"47638","SITE":"AFETR","MEAN_ELEMENT_THEORY":"SGP4","BSTAR":"-0.00008230600000"},{"COUNTRY_CODE":"US","PERIOD":"95.593","OBJECT_NAME":"STARLINK-2016","PERIAPSIS":"546.024","TLE_LINE2":"2 47639  53.0569 349.9130 0001775  78.1861 281.9327 15.06387090 64752","CENTER_NAME":"EARTH","LAUNCH_DATE":"2021-02-16","RCS_SIZE":"LARGE","TIME_SYSTEM":"UTC","EPHEMERIS_TYPE":"0","NORAD_CAT_ID":"47639","SITE":"AFETR","MEAN_ELEMENT_THEORY":"SGP4","BSTAR":"-0.00028259000000","OBJECT_TYPE":"PAYLOAD","MEAN_MOTION_DOT":"-0.00004487","ARG_OF_PERICENTER":"78.1861","APOAPSIS":"548.482","EPOCH":"2022-04-09T23:05:00.720960","REV_AT_EPOCH":"6475","INCLINATION":"53.0569","TLE_LINE1":"1 47639U 21012V   22099.96181390 -.00004487  00000-0 -28259-3 0  9998","REF_FRAME":"TEME","DECAY_DATE":null,"GP_ID":"200862123","ECCENTRICITY":"0.00017750","FILE":"3395351","ELEMENT_SET_NO":"999","MEAN_ANOMALY":"281.9327","MEAN_MOTION":"15.06387090","RA_OF_ASC_NODE":"349.9130","OBJECT_ID":"2021-012V","CLASSIFICATION_TYPE":"U","MEAN_MOTION_DDOT":"0.0000000000000","SEMIMAJOR_AXIS":"6925.388"},{"SEMIMAJOR_AXIS":"6925.343","CLASSIFICATION_TYPE":"U","MEAN_MOTION_DDOT":"0.0000000000000","RA_OF_ASC_NODE":"10.2354","OBJECT_ID":"2021-012W","ELEMENT_SET_NO":"999","FILE":"3395351","MEAN_MOTION":"15.06401790","MEAN_ANOMALY":"299.8991","ECCENTRICITY":"0.00017250","GP_ID":"200862865","DECAY_DATE":null,"INCLINATION":"53.0553","TLE_LINE1":"1 47640U 21012W   22099.88992459  .00000857  00000-0  76423-4 0  9999","REF_FRAME":"TEME","REV_AT_EPOCH":"6448","EPOCH":"2022-04-09T21:21:29.484576","APOAPSIS":"548.403","ARG_OF_PERICENTER":"60.2169","OBJECT_TYPE":"PAYLOAD","MEAN_MOTION_DOT":"0.00000857","MEAN_ELEMENT_THEORY":"SGP4","BSTAR":"0.00007642300000","SITE":"AFETR","NORAD_CAT_ID":"47640","EPHEMERIS_TYPE":"0","TIME_SYSTEM":"UTC","RCS_SIZE":"LARGE","LAUNCH_DATE":"2021-02-16","PERIAPSIS":"546.013","TLE_LINE2":"2 47640  53.0553  10.2354 0001725  60.2169 299.8991 15.06401790 64480","CENTER_NAME":"EARTH","OBJECT_NAME":"STARLINK-2018","PERIOD":"95.592","COUNTRY_CODE":"US"},{"FILE":"3395351","MEAN_ANOMALY":"40.8714","ELEMENT_SET_NO":"999","MEAN_MOTION":"15.06347027","OBJECT_ID":"2021-012X","RA_OF_ASC_NODE":"275.1230","CLASSIFICATION_TYPE":"U","MEAN_MOTION_DDOT":"0.0000000000000","SEMIMAJOR_AXIS":"6925.511","APOAPSIS":"548.410","EPOCH":"2022-04-09T22:00:00.999936","REV_AT_EPOCH":"361","REF_FRAME":"TEME","TLE_LINE1":"1 47641U 21012X   22099.91667824  .00056727  00000-0  38021-2 0  9996","INCLINATION":"53.0554","DECAY_DATE":null,"ECCENTRICITY":"0.00014930","GP_ID":"200863095","TIME_SYSTEM":"UTC","RCS_SIZE":"LARGE","EPHEMERIS_TYPE":"0","NORAD_CAT_ID":"47641","SITE":"AFETR","MEAN_ELEMENT_THEORY":"SGP4","BSTAR":"0.00380210000000","OBJECT_TYPE":"PAYLOAD","MEAN_MOTION_DOT":"0.00056727","ARG_OF_PERICENTER":"46.8791","COUNTRY_CODE":"US","PERIOD":"95.596","OBJECT_NAME":"STARLINK-2019","PERIAPSIS":"546.342","TLE_LINE2":"2 47641  53.0554 275.1230 0001493  46.8791  40.8714 15.06347027  3617","CENTER_NAME":"EARTH","LAUNCH_DATE":"2021-02-16"},{"APOAPSIS":"548.237","REV_AT_EPOCH":"6454","EPOCH":"2022-04-09T21:30:08.440992","TLE_LINE1":"1 47642U 21012Y   22099.89593103 -.00001573  00000-0 -86783-4 0  9993","REF_FRAME":"TEME","INCLINATION":"53.0532","GP_ID":"200861870","ECCENTRICITY":"0.00014200","DECAY_DATE":null,"OBJECT_ID":"2021-012Y","RA_OF_ASC_NODE":"5.2150","FILE":"3395351","ELEMENT_SET_NO":"999","MEAN_MOTION":"15.06386789","MEAN_ANOMALY":"273.7127","MEAN_MOTION_DDOT":"0.0000000000000","CLASSIFICATION_TYPE":"U","SEMIMAJOR_AXIS":"6925.389","COUNTRY_CODE":"US","PERIOD":"95.593","OBJECT_NAME":"STARLINK-2020","LAUNCH_DATE":"2021-02-16","CENTER_NAME":"EARTH","TLE_LINE2":"2 47642  53.0532   5.2150 0001420  86.4024 273.7127 15.06386789 64548","PERIAPSIS":"546.271","NORAD_CAT_ID":"47642","EPHEMERIS_TYPE":"0","RCS_SIZE":"LARGE","TIME_SYSTEM":"UTC","BSTAR":"-0.00008678300000","MEAN_ELEMENT_THEORY":"SGP4","SITE":"AFETR","MEAN_MOTION_DOT":"-0.00001573","OBJECT_TYPE":"PAYLOAD","ARG_OF_PERICENTER":"86.4024"},{"GP_ID":"200862623","ECCENTRICITY":"0.00016310","DECAY_DATE":null,"INCLINATION":"53.0570","TLE_LINE1":"1 47643U 21012Z   22099.97656646 -.00003039  00000-0 -18526-3 0  9993","REF_FRAME":"TEME","REV_AT_EPOCH":"6477","EPOCH":"2022-04-09T23:26:15.342144","APOAPSIS":"548.378","SEMIMAJOR_AXIS":"6925.384","CLASSIFICATION_TYPE":"U","MEAN_MOTION_DDOT":"0.0000000000000","RA_OF_ASC_NODE":"349.8511","OBJECT_ID":"2021-012Z","FILE":"3395351","ELEMENT_SET_NO":"999","MEAN_ANOMALY":"305.6876","MEAN_MOTION":"15.06388511","LAUNCH_DATE":"2021-02-16","CENTER_NAME":"EARTH","PERIAPSIS":"546.119","TLE_LINE2":"2 47643  53.0570 349.8511 0001631  54.4265 305.6876 15.06388511 64771","OBJECT_NAME":"STARLINK-2022","PERIOD":"95.593","COUNTRY_CODE":"US","ARG_OF_PERICENTER":"54.4265","MEAN_MOTION_DOT":"-0.00003039","OBJECT_TYPE":"PAYLOAD","BSTAR":"-0.00018526000000","MEAN_ELEMENT_THEORY":"SGP4","SITE":"AFETR","NORAD_CAT_ID":"47643","EPHEMERIS_TYPE":"0","RCS_SIZE":"LARGE","TIME_SYSTEM":"UTC"},{"PERIOD":"95.593","COUNTRY_CODE":"US","LAUNCH_DATE":"2021-02-16","CENTER_NAME":"EARTH","TLE_LINE2":"2 47644  53.0569  10.0945 0002004  80.0891 280.0324 15.06389367 64496","PERIAPSIS":"545.858","OBJECT_NAME":"STARLINK-2026","BSTAR":"-0.00000603820000","MEAN_ELEMENT_THEORY":"SGP4","SITE":"AFETR","NORAD_CAT_ID":"47644","EPHEMERIS_TYPE":"0","TIME_SYSTEM":"UTC","RCS_SIZE":"LARGE","ARG_OF_PERICENTER":"80.0891","MEAN_MOTION_DOT":"-0.00000372","OBJECT_TYPE":"PAYLOAD","REV_AT_EPOCH":"6449","EPOCH":"2022-04-09T22:09:16.694496","APOAPSIS":"548.634","ECCENTRICITY":"0.00020040","GP_ID":"200863365","DECAY_DATE":null,"INCLINATION":"53.0569","TLE_LINE1":"1 47644U 21012AA  22099.92310989 -.00000372  00000-0 -60382-5 0  9992","REF_FRAME":"TEME","RA_OF_ASC_NODE":"10.0945","OBJECT_ID":"2021-012AA","MEAN_MOTION":"15.06389367","FILE":"3395351","ELEMENT_SET_NO":"999","MEAN_ANOMALY":"280.0324","SEMIMAJOR_AXIS":"6925.381","CLASSIFICATION_TYPE":"U","MEAN_MOTION_DDOT":"0.0000000000000"}];
